NORAD_CAT_ID,OBJECT_NAME,OBJECT_TYPE,EPOCH,MEAN_MOTION,ECCENTRICITY,INCLINATION,RA_OF_ASC_NODE,ARG_OF_PERICENTER,MEAN_ANOMALY,BSTAR,MEAN_MOTION_DOT,MEAN_MOTION_DDOT,TLE_LINE0,TLE_LINE1,TLE_LINE2,SEMIMAJOR_AXIS,PERIOD,APOGEE,PERIGEE,DECAYED
53032.0,STARLINK-4115,PAYLOAD,2023-09-21 01:11:45,15.08822641,0.0001482,53.2175,167.2505,81.64,278.476,-0.00011491,-2.115e-05,0.0,0 STARLINK-4115,1 53032U 22076AY  23264.04982879 -.00002115  00000-0 -11491-3 0  9994,2 53032  53.2175 167.2505 0001482  81.6400 278.4760 15.08822641 67495,6917.933,95.439,540.824,538.773,0.0
53032.0,STARLINK-4115,PAYLOAD,2023-09-21 02:47:08,15.08824329,0.0001475,53.2175,166.9532,81.3685,278.7474,-9.4247e-05,-1.787e-05,0.0,0 STARLINK-4115,1 53032U 22076AY  23264.11606819 -.00001787  00000-0 -94247-4 0  9994,2 53032  53.2175 166.9532 0001475  81.3685 278.7474 15.08824329 67035,6917.928,95.439,540.814,538.773,0.0
53032.0,STARLINK-4115,PAYLOAD,2023-09-21 21:51:44,15.08844805,0.0001547,53.2184,163.3857,109.6389,250.477,1.1636e-05,-1.03e-06,0.0,0 STARLINK-4115,1 53032U 22076AY  23264.91093514 -.00000103  00000-0  11636-4 0  9995,2 53032  53.2184 163.3857 0001547 109.6389 250.4770 15.08844805 67151,6917.866,95.437,540.801,538.661,0.0
53032.0,STARLINK-4115,PAYLOAD,2023-09-22 02:37:54,15.08847617,0.0001373,53.2161,162.4939,83.4152,276.6997,0.00023421,3.442e-05,0.0,0 STARLINK-4115,1 53032U 22076AY  23265.10965494  .00003442  00000-0  23421-3 0  9994,2 53032  53.2161 162.4939 0001373  83.4152 276.6997 15.08847617 67651,6917.857,95.437,540.672,538.772,0.0
53032.0,STARLINK-4115,PAYLOAD,2023-09-22 21:42:32,15.08845307,0.0001373,53.2157,158.9229,92.3458,267.7692,0.00041004,6.245e-05,0.0,0 STARLINK-4115,1 53032U 22076AY  23265.90453990  .00006245  00000-0  41004-3 0  9996,2 53032  53.2157 158.9229 0001373  92.3458 267.7692 15.08845307 67305,6917.864,95.437,540.679,538.779,0.0
53032.0,STARLINK-4115,PAYLOAD,2023-09-22 23:17:55,15.08849757,0.0001325,53.216,158.626,92.1491,267.9653,0.00040798,6.213e-05,0.0,0 STARLINK-4115,1 53032U 22076AY  23265.97077829  .00006213  00000-0  40798-3 0  9990,2 53032  53.2160 158.6260 0001325  92.1491 267.9653 15.08849757 67787,6917.851,95.437,540.632,538.799,0.0
53032.0,STARLINK-4115,PAYLOAD,2023-09-23 02:28:41,15.08854028,0.000134,53.2169,158.0299,93.9028,266.2117,0.00045309,6.933e-05,0.0,0 STARLINK-4115,1 53032U 22076AY  23266.10325511  .00006933  00000-0  45309-3 0  9992,2 53032  53.2169 158.0299 0001340  93.9028 266.2117 15.08854028 67339,6917.838,95.437,540.63,538.776,0.0
53032.0,STARLINK-4115,PAYLOAD,2023-09-24 02:19:28,15.0884769,0.0001376,53.2167,153.5702,100.224,259.8907,6.5346e-05,7.52e-06,0.0,0 STARLINK-4115,1 53032U 22076AY  23267.09685513  .00000752  00000-0  65346-4 0  9999,2 53032  53.2167 153.5702 0001376 100.2240 259.8907 15.08847690 67953,6917.857,95.437,540.674,538.77,0.0
53032.0,STARLINK-4115,PAYLOAD,2023-09-24 21:24:06,15.08843569,0.0001417,53.2165,150.0015,100.9801,259.135,-1.1504e-05,-4.71e-06,0.0,0 STARLINK-4115,1 53032U 22076AY  23267.89173713 -.00000471  00000-0 -11504-4 0  9998,2 53032  53.2165 150.0015 0001417 100.9801 259.1350 15.08843569 68076,6917.869,95.437,540.715,538.754,0.0
53032.0,STARLINK-4115,PAYLOAD,2023-09-24 22:59:29,15.08844813,0.0001433,53.2166,149.704,101.8309,258.2844,9.4532e-06,-1.37e-06,0.0,0 STARLINK-4115,1 53032U 22076AY  23267.95797633 -.00000137  00000-0  94532-5 0  9999,2 53032  53.2166 149.7040 0001433 101.8309 258.2844 15.08844813 67611,6917.866,95.437,540.722,538.739,0.0
53032.0,STARLINK-4115,PAYLOAD,2023-09-25 22:50:16,15.08840233,0.0001576,53.2166,145.2433,108.6952,251.4211,0.00077758,0.00012109,0.0,0 STARLINK-4115,1 53032U 22076AY  23268.95157790  .00012109  00000-0  77758-3 0  9994,2 53032  53.2166 145.2433 0001576 108.6952 251.4211 15.08840233 67766,6917.88,95.438,540.835,538.654,0.0
53032.0,STARLINK-4115,PAYLOAD,2023-09-26 19:30:17,15.08834868,0.0001451,53.2158,141.3793,89.3747,270.7412,-5.8591e-05,-1.22e-05,0.0,0 STARLINK-4115,1 53032U 22076AY  23269.81270066 -.00001220  00000-0 -58591-4 0  9991,2 53032  53.2158 141.3793 0001451  89.3747 270.7412 15.08834868 68363,6917.896,95.438,540.765,538.757,0.0
53032.0,STARLINK-4115,PAYLOAD,2023-09-26 21:05:40,15.08834535,0.0001433,53.2158,141.082,88.707,271.4086,-5.6295e-05,-1.184e-05,0.0,0 STARLINK-4115,1 53032U 22076AY  23269.87894110 -.00001184  00000-0 -56295-4 0  9997,2 53032  53.2158 141.0820 0001433  88.7070 271.4086 15.08834535 67908,6917.897,95.438,540.753,538.771,0.0
53032.0,STARLINK-4115,PAYLOAD,2023-09-27 08:13:22,15.08828822,0.0001486,53.2161,138.9999,85.5651,274.5511,-0.00010119,-1.898e-05,0.0,0 STARLINK-4115,1 53032U 22076AY  23270.34262632 -.00001898  00000-0 -10119-3 0  9995,2 53032  53.2161 138.9999 0001486  85.5651 274.5511 15.08828822 67978,6917.915,95.438,540.808,538.752,0.0
53032.0,STARLINK-4115,PAYLOAD,2023-09-27 20:56:28,15.08829426,0.0001418,53.2154,136.6196,79.5869,280.5283,-8.0335e-05,-1.566e-05,0.0,0 STARLINK-4115,1 53032U 22076AY  23270.87254979 -.00001566  00000-0 -80335-4 0  9998,2 53032  53.2154 136.6196 0001418  79.5869 280.5283 15.08829426 68529,6917.913,95.438,540.759,538.797,0.0
53032.0,STARLINK-4115,PAYLOAD,2023-09-28 00:07:13,15.0884084,0.0001357,53.2154,136.0266,98.3071,261.8075,5.5403e-06,-2e-06,0.0,0 STARLINK-4115,1 53032U 22076AY  23271.00502231 -.00000200  00000-0  55403-5 0  9993,2 53032  53.2154 136.0266 0001357  98.3071 261.8075 15.08840840 68543,6917.878,95.438,540.682,538.804,0.0
53032.0,STARLINK-4115,PAYLOAD,2023-09-28 22:22:38,15.08846797,0.0001434,53.2156,131.8637,92.6704,267.4453,0.00034253,5.169e-05,0.0,0 STARLINK-4115,1 53032U 22076AY  23271.93238564  .00005169  00000-0  34253-3 0  9996,2 53032  53.2156 131.8637 0001434  92.6704 267.4453 15.08846797 68219,6917.86,95.437,540.717,538.733,0.0
53032.0,STARLINK-4115,PAYLOAD,2023-09-28 23:58:01,15.08847684,0.0001456,53.2157,131.5662,90.6965,269.4194,0.00034722,5.244e-05,0.0,0 STARLINK-4115,1 53032U 22076AY  23271.99862521  .00005244  00000-0  34722-3 0  9993,2 53032  53.2157 131.5662 0001456  90.6965 269.4194 15.08847684 68227,6917.857,95.437,540.729,538.715,0.0
53032.0,STARLINK-4115,PAYLOAD,2023-09-29 22:13:24,15.08849295,0.0001404,53.2154,127.404,96.3956,263.7196,0.00024079,3.547e-05,0.0,0 STARLINK-4115,1 53032U 22076AY  23272.92598259  .00003547  00000-0  24079-3 0  9999,2 53032  53.2154 127.4040 0001404  96.3956 263.7196 15.08849295 68830,6917.852,95.437,540.688,538.746,0.0
53032.0,STARLINK-4115,PAYLOAD,2023-09-30 07:45:43,15.08842318,0.0001476,53.2153,125.6198,87.3266,272.7895,1.4068e-05,-6.4e-07,0.0,0 STARLINK-4115,1 53032U 22076AY  23273.32342486 -.00000064  00000-0  14068-4 0  9993,2 53032  53.2153 125.6198 0001476  87.3266 272.7895 15.08842318 68897,6917.873,95.437,540.759,538.717,0.0
53032.0,STARLINK-4115,PAYLOAD,2023-10-01 07:36:31,15.08843167,0.0001534,53.2171,121.1574,96.5176,263.5991,9.0228e-05,1.148e-05,0.0,0 STARLINK-4115,1 53032U 22076AY  23274.31702586  .00001148  00000-0  90228-4 0  9999,2 53032  53.2171 121.1574 0001534  96.5176 263.5991 15.08843167 68576,6917.871,95.437,540.797,538.675,0.0
53032.0,STARLINK-4115,PAYLOAD,2023-10-01 18:44:13,15.08832063,0.0001696,53.2168,119.0751,117.6327,242.4837,0.00081593,0.00012719,0.0,0 STARLINK-4115,1 53032U 22076AY  23274.78070876  .00012719  00000-0  81593-3 0  9990,2 53032  53.2168 119.0751 0001696 117.6327 242.4837 15.08832063 69116,6917.905,95.438,540.943,538.596,0.0
53032.0,STARLINK-4115,PAYLOAD,2023-10-01 20:19:35,15.08854348,0.000128,53.2153,118.7795,94.8372,265.2766,0.00017891,2.562e-05,0.0,0 STARLINK-4115,1 53032U 22076AY  23274.84693827  .00002562  00000-0  17891-3 0  9999,2 53032  53.2153 118.7795 0001280  94.8372 265.2766 15.08854348 68651,6917.837,95.437,540.587,538.816,0.0
53032.0,STARLINK-4115,PAYLOAD,2023-10-01 23:30:21,15.08857419,0.0001269,53.2152,118.1839,100.1316,259.9819,0.00023359,3.433e-05,0.0,0 STARLINK-4115,1 53032U 22076AY  23274.97941572  .00003433  00000-0  23359-3 0  9990,2 53032  53.2152 118.1839 0001269 100.1316 259.9819 15.08857419 69145,6917.827,95.436,540.57,538.814,0.0
53032.0,STARLINK-4115,PAYLOAD,2023-10-02 20:10:22,15.08843637,0.0001329,53.2147,114.318,93.1318,266.9827,0.00014625,2.041e-05,0.0,0 STARLINK-4115,1 53032U 22076AY  23275.84054306  .00002041  00000-0  14625-3 0  9997,2 53032  53.2147 114.3180 0001329  93.1318 266.9827 15.08843637 69274,6917.869,95.437,540.654,538.815,0.0
53032.0,STARLINK-4115,PAYLOAD,2023-10-02 23:21:09,15.08844975,0.0001343,53.2148,113.7232,91.7564,268.3582,0.00011899,1.607e-05,0.0,0 STARLINK-4115,1 53032U 22076AY  23275.97302242  .00001607  00000-0  11899-3 0  9993,2 53032  53.2148 113.7232 0001343  91.7564 268.3582 15.08844975 68829,6917.865,95.437,540.659,538.801,0.0
53032.0,STARLINK-4115,PAYLOAD,2023-10-03 20:01:10,15.08840655,0.0001275,53.2147,109.8588,84.2706,275.8431,2.3427e-05,8.5e-07,0.0,0 STARLINK-4115,1 53032U 22076AY  23276.83414462  .00000085  00000-0  23427-4 0  9997,2 53032  53.2147 109.8588 0001275  84.2706 275.8431 15.08840655 69421,6917.878,95.438,540.625,538.861,0.0
53032.0,STARLINK-4115,PAYLOAD,2023-10-04 11:55:01,15.0884132,0.0001309,53.2148,106.8845,86.2904,273.8238,0.00018675,2.686e-05,0.0,0 STARLINK-4115,1 53032U 22076AY  23277.49654670  .00002686  00000-0  18675-3 0  9994,2 53032  53.2148 106.8845 0001309  86.2904 273.8238 15.08841320 69057,6917.876,95.437,540.647,538.836,0.0
53032.0,STARLINK-4115,PAYLOAD,2023-10-04 19:51:56,15.08851658,0.0001227,53.2147,105.3985,90.1545,269.9588,0.00039815,6.056e-05,0.0,0 STARLINK-4115,1 53032U 22076AY  23277.82774261  .00006056  00000-0  39815-3 0  9994,2 53032  53.2147 105.3985 0001227  90.1545 269.9588 15.08851658 69104,6917.845,95.437,540.559,538.861,0.0
53032.0,STARLINK-4115,PAYLOAD,2023-10-04 21:27:20,15.08854995,0.0001255,53.2148,105.1009,88.7328,271.3807,0.00048121,7.382e-05,0.0,0 STARLINK-4115,1 53032U 22076AY  23277.89398170  .00007382  00000-0  48121-3 0  9995,2 53032  53.2148 105.1009 0001255  88.7328 271.3807 15.08854995 69583,6917.835,95.437,540.568,538.831,0.0
